{
  "type": "FeatureCollection",
  "features": [
    {
      "type": "Feature",
      "properties": {
        "norad_id": 30860,
        "name": "FENGYUN 1C DEB",
        "group": "fengyun-1c-debris",
        "lat": -15.21923151076453,
        "lon": -119.14646153681672,
        "alt_km": 783.6625732622424,
        "timestamp": "2025-12-15T19:00:45.635758+00:00",
        "meta_object_name": "FENGYUN 1C DEB",
        "meta_object_id": "1999-025AWW",
        "meta_epoch": "2025-12-14T21:53:07.453248",
        "meta_mean_motion": 14.25516059,
        "meta_eccentricity": 0.00402549,
        "meta_inclination": 98.9056,
        "meta_ra_of_asc_node": 62.4047,
        "meta_arg_of_pericenter": 181.3477,
        "meta_mean_anomaly": 178.76,
        "meta_ephemeris_type": 0,
        "meta_classification_type": "U",
        "meta_norad_cat_id": 30860,
        "meta_element_set_no": 999,
        "meta_rev_at_epoch": 96547,
        "meta_bstar": 0.0012649432,
        "meta_mean_motion_dot": 2.971e-05,
        "meta_mean_motion_ddot": 0,
        "tle_line1": "1 30860U 99025AWW 25348.91189182  .00002971  00000+0  12649-2 0  9995",
        "tle_line2": "2 30860  98.9056  62.4047 0040254 181.3477 178.7600 14.25516059965473"
      },
      "geometry": {
        "type": "Point",
        "coordinates": [
          -119.14646153681672,
          -15.21923151076453
        ]
      }
    },
    {
      "type": "Feature",
      "properties": {
        "norad_id": 30862,
        "name": "FENGYUN 1C DEB",
        "group": "fengyun-1c-debris",
        "lat": -9.339005454913906,
        "lon": -100.77513027221943,
        "alt_km": 721.2453008878292,
        "timestamp": "2025-12-15T19:00:45.635768+00:00",
        "meta_object_name": "FENGYUN 1C DEB",
        "meta_object_id": "1999-025AWY",
        "meta_epoch": "2025-12-14T05:40:16.842720",
        "meta_mean_motion": 14.43118996,
        "meta_eccentricity": 0.00526232,
        "meta_inclination": 98.9595,
        "meta_ra_of_asc_node": 79.0764,
        "meta_arg_of_pericenter": 159.3048,
        "meta_mean_anomaly": 231.0039,
        "meta_ephemeris_type": 0,
        "meta_classification_type": "U",
        "meta_norad_cat_id": 30862,
        "meta_element_set_no": 999,
        "meta_rev_at_epoch": 96741,
        "meta_bstar": 0.0036119455,
        "meta_mean_motion_dot": 0.00012301,
        "meta_mean_motion_ddot": 0,
        "tle_line1": "1 30862U 99025AWY 25348.23630605  .00012301  00000+0  36119-2 0  9999",
        "tle_line2": "2 30862  98.9595  79.0764 0052623 159.3048 231.0039 14.43118996967418"
      },
      "geometry": {
        "type": "Point",
        "coordinates": [
          -100.77513027221943,
          -9.339005454913906
        ]
      }
    },
    {
      "type": "Feature",
      "properties": {
        "norad_id": 30863,
        "name": "FENGYUN 1C DEB",
        "group": "fengyun-1c-debris",
        "lat": 38.91680003699262,
        "lon": 172.685976164813,
        "alt_km": 2120.7957200379924,
        "timestamp": "2025-12-15T19:00:45.635779+00:00",
        "meta_object_name": "FENGYUN 1C DEB",
        "meta_object_id": "1999-025AWZ",
        "meta_epoch": "2025-12-12T19:18:29.005632",
        "meta_mean_motion": 12.4051166,
        "meta_eccentricity": 0.08787853,
        "meta_inclination": 99.1228,
        "meta_ra_of_asc_node": 177.858,
        "meta_arg_of_pericenter": 250.2781,
        "meta_mean_anomaly": 128.5224,
        "meta_ephemeris_type": 0,
        "meta_classification_type": "U",
        "meta_norad_cat_id": 30863,
        "meta_element_set_no": 999,
        "meta_rev_at_epoch": 59741,
        "meta_bstar": 0.0059104409,
        "meta_mean_motion_dot": 3.087e-05,
        "meta_mean_motion_ddot": 0,
        "tle_line1": "1 30863U 99025AWZ 25346.80450238  .00003087  00000+0  59104-2 0  9993",
        "tle_line2": "2 30863  99.1228 177.8580 0878785 250.2781 128.5224 12.40511660597413"
      },
      "geometry": {
        "type": "Point",
        "coordinates": [
          172.685976164813,
          38.91680003699262
        ]
      }
    },
    {
      "type": "Feature",
      "properties": {
        "norad_id": 30867,
        "name": "FENGYUN 1C DEB",
        "group": "fengyun-1c-debris",
        "lat": -71.7451332433828,
        "lon": -78.85591869836698,
        "alt_km": 785.9910653625848,
        "timestamp": "2025-12-15T19:00:45.635789+00:00",
        "meta_object_name": "FENGYUN 1C DEB",
        "meta_object_id": "1999-025AXD",
        "meta_epoch": "2025-12-14T16:35:06.228384",
        "meta_mean_motion": 14.28023511,
        "meta_eccentricity": 0.0054317,
        "meta_inclination": 97.8767,
        "meta_ra_of_asc_node": 255.3348,
        "meta_arg_of_pericenter": 349.9132,
        "meta_mean_anomaly": 39.5579,
        "meta_ephemeris_type": 0,
        "meta_classification_type": "U",
        "meta_norad_cat_id": 30867,
        "meta_element_set_no": 999,
        "meta_rev_at_epoch": 96565,
        "meta_bstar": 0.0021432817,
        "meta_mean_motion_dot": 5.369e-05,
        "meta_mean_motion_ddot": 0,
        "tle_line1": "1 30867U 99025AXD 25348.69104431  .00005369  00000+0  21433-2 0  9996",
        "tle_line2": "2 30867  97.8767 255.3348 0054317 349.9132  39.5579 14.28023511965657"
      },
      "geometry": {
        "type": "Point",
        "coordinates": [
          -78.85591869836698,
          -71.7451332433828
        ]
      }
    },
    {
      "type": "Feature",
      "properties": {
        "norad_id": 30868,
        "name": "FENGYUN 1C DEB",
        "group": "fengyun-1c-debris",
        "lat": -59.954502984174226,
        "lon": -117.86197490576077,
        "alt_km": 869.717081969884,
        "timestamp": "2025-12-15T19:00:45.635803+00:00",
        "meta_object_name": "FENGYUN 1C DEB",
        "meta_object_id": "1999-025AXE",
        "meta_epoch": "2025-12-14T14:31:49.179648",
        "meta_mean_motion": 14.1112129,
        "meta_eccentricity": 0.01352319,
        "meta_inclination": 98.2632,
        "meta_ra_of_asc_node": 226.4944,
        "meta_arg_of_pericenter": 207.5477,
        "meta_mean_anomaly": 184.5609,
        "meta_ephemeris_type": 0,
        "meta_classification_type": "U",
        "meta_norad_cat_id": 30868,
        "meta_element_set_no": 999,
        "meta_rev_at_epoch": 96737,
        "meta_bstar": 0.00018389166,
        "meta_mean_motion_dot": 3.21e-06,
        "meta_mean_motion_ddot": 0,
        "tle_line1": "1 30868U 99025AXE 25348.60543032  .00000321  00000+0  18389-3 0  9992",
        "tle_line2": "2 30868  98.2632 226.4944 0135231 207.5477 184.5609 14.11121290967372"
      },
      "geometry": {
        "type": "Point",
        "coordinates": [
          -117.86197490576077,
          -59.954502984174226
        ]
      }
    },
    {
      "type": "Feature",
      "properties": {
        "norad_id": 30872,
        "name": "FENGYUN 1C DEB",
        "group": "fengyun-1c-debris",
        "lat": 55.926028497743026,
        "lon": 28.527302093934274,
        "alt_km": 731.7965701040848,
        "timestamp": "2025-12-15T19:00:45.635814+00:00",
        "meta_object_name": "FENGYUN 1C DEB",
        "meta_object_id": "1999-025AXJ",
        "meta_epoch": "2025-12-14T02:50:40.608384",
        "meta_mean_motion": 14.39434229,
        "meta_eccentricity": 0.00407271,
        "meta_inclination": 99.1933,
        "meta_ra_of_asc_node": 40.5867,
        "meta_arg_of_pericenter": 24.6384,
        "meta_mean_anomaly": 4.1629,
        "meta_ephemeris_type": 0,
        "meta_classification_type": "U",
        "meta_norad_cat_id": 30872,
        "meta_element_set_no": 999,
        "meta_rev_at_epoch": 97756,
        "meta_bstar": 0.0010146799,
        "meta_mean_motion_dot": 3.141e-05,
        "meta_mean_motion_ddot": 0,
        "tle_line1": "1 30872U 99025AXJ 25348.11852556  .00003141  00000+0  10147-2 0  9993",
        "tle_line2": "2 30872  99.1933  40.5867 0040727  24.6384   4.1629 14.39434229977560"
      },
      "geometry": {
        "type": "Point",
        "coordinates": [
          28.527302093934274,
          55.926028497743026
        ]
      }
    },
    {
      "type": "Feature",
      "properties": {
        "norad_id": 30873,
        "name": "FENGYUN 1C DEB",
        "group": "fengyun-1c-debris",
        "lat": 59.49544297215233,
        "lon": -175.08058964388195,
        "alt_km": 895.6134480305745,
        "timestamp": "2025-12-15T19:00:45.635824+00:00",
        "meta_object_name": "FENGYUN 1C DEB",
        "meta_object_id": "1999-025AXK",
        "meta_epoch": "2025-12-13T22:26:58.960032",
        "meta_mean_motion": 14.19139144,
        "meta_eccentricity": 0.01077441,
        "meta_inclination": 98.6117,
        "meta_ra_of_asc_node": 348.2097,
        "meta_arg_of_pericenter": 285.2656,
        "meta_mean_anomaly": 73.663,
        "meta_ephemeris_type": 0,
        "meta_classification_type": "U",
        "meta_norad_cat_id": 30873,
        "meta_element_set_no": 999,
        "meta_rev_at_epoch": 97209,
        "meta_bstar": 0.00028820996,
        "meta_mean_motion_dot": 5.95e-06,
        "meta_mean_motion_ddot": 0,
        "tle_line1": "1 30873U 99025AXK 25347.93540463  .00000595  00000+0  28821-3 0  9993",
        "tle_line2": "2 30873  98.6117 348.2097 0107744 285.2656  73.6630 14.19139144972094"
      },
      "geometry": {
        "type": "Point",
        "coordinates": [
          -175.08058964388195,
          59.49544297215233
        ]
      }
    }
  ]
}